ONEWEB-0327             
1 49196U 21083L   24037.32335429 -.00000176  00000+0 -47907-3 0  9995
2 49196  87.9242 146.9899 0001566 120.3369 239.7918 13.18684792117716
ONEWEB-0328             
1 49197U 21083M   24036.81487626 -.00000174  00000+0 -51269-3 0  9990
2 49197  87.9001 131.9003 0001572 107.7376 252.3925 13.13468671117692
ONEWEB-0331             
1 49198U 21083N   24036.66024543 -.00000043  00000+0 -14208-3 0  9996
2 49198  87.9248 147.1029 0001488 110.0795 250.0498 13.18686606116336
ONEWEB-0333             
1 49199U 21083P   24037.26717729  .00000083  00000+0  19317-3 0  9997
2 49199  87.9011 131.8223 0001976 106.9604 253.1742 13.13470647119055
ONEWEB-0334             
1 49200U 21083Q   24036.69565959  .00000096  00000+0  20309-3 0  9999
2 49200  87.9147  86.1620 0002766  99.1520 260.9926 13.20769496122942
ONEWEB-0335             
1 49201U 21083R   24037.26242400  .00000238  00000+0  61566-3 0  9995
2 49201  87.9012 131.8120 0001643 105.0082 255.1229 13.13469620119069
ONEWEB-0336             
1 49202U 21083S   24036.77520343  .00000140  00000+0  34764-3 0  9998
2 49202  87.9010 131.9064 0001934 108.6442 251.4897 13.13469750117701
ONEWEB-0337             
1 49203U 21083T   24037.31783242  .00000327  00000+0  86189-3 0  9994
2 49203  87.9010 131.7973 0001593 104.2051 255.9256 13.13469304119073
